OBJECT_NAME,OBJECT_ID,EPOCH,MEAN_MOTION,ECCENTRICITY,INCLINATION,RA_OF_ASC_NODE,ARG_OF_PERICENTER,MEAN_ANOMALY,EPHEMERIS_TYPE,CLASSIFICATION_TYPE,NORAD_CAT_ID,ELEMENT_SET_NO,REV_AT_EPOCH,BSTAR,MEAN_MOTION_DOT,MEAN_MOTION_DDOT
GALAXY 17 (G-17),2007-016B,2026-06-25T12:11:39.293088,1.00271571,.000454,2.9931,79.8023,18.1719,273.5770,0,U,31307,999,6988,0,-.199E-5,0
INTELSAT 11 (IS-11),2007-044B,2026-06-25T16:26:33.803808,0.99047914,.0002963,3.5876,78.5732,84.2017,86.1516,0,U,32253,999,6853,0,.2E-7,0
WGS F1 (USA 195),2007-046A,2026-06-25T15:48:58.031136,1.00274369,.0000275,0.0311,82.3880,345.3579,40.7845,0,U,32258,999,5242,0,-.257E-5,0
SKYNET 5B,2007-056B,2026-06-25T19:33:50.797728,1.00270426,.0003424,5.2734,73.4021,24.6188,134.4765,0,U,32294,999,6828,0,.145E-5,0
ASTRA 4A,2007-057A,2026-06-25T19:27:58.862016,1.00270871,.0002596,0.0205,317.1079,136.6761,116.9542,0,U,32299,999,5173,0,.43E-6,0
HORIZONS-2,2007-063B,2026-06-25T12:14:53.983392,1.00271711,.0004136,2.6236,80.5312,5.0731,297.9685,0,U,32388,999,6789,0,-.245E-5,0
THURAYA-3,2008-001A,2026-06-25T16:20:37.370976,1.00009028,.000189,6.0035,35.8134,142.0341,49.0680,0,U,32404,999,6757,0,.26E-6,0
THOR 5,2008-006A,2026-06-25T17:43:45.908256,1.00271135,.0002687,0.0423,253.3413,203.2695,82.4497,0,U,32487,999,6740,0,.1E-7,0
AMC-14,2008-011A,2026-06-24T02:42:00.534816,1.00356055,.00451778,24.0123,20.4352,7.5191,352.4523,0,U,32708,999,6823,0,-.74E-6,0
DIRECTV 11,2008-013A,2026-06-25T19:33:00.023040,1.00273137,.000012,0.0131,250.3796,233.1459,344.4850,0,U,32729,999,4568,0,-.115E-5,0
ICO G1,2008-016A,2026-06-25T15:34:44.394816,1.00272736,.0002366,5.5281,36.1017,44.8991,333.6122,0,U,32763,999,6663,0,-.167E-5,0
VINASAT-1,2008-018A,2026-06-25T14:05:38.664384,1.00269039,.0001703,0.0253,301.7728,162.8997,152.3833,0,U,32767,999,6667,0,-.318E-5,0
STAR ONE C2,2008-018B,2026-06-25T12:17:23.743104,1.00271549,.0002899,1.2624,82.4018,19.8826,290.7177,0,U,32768,999,6673,0,-.267E-5,0
AMOS-3,2008-022A,2026-06-25T19:39:35.246880,1.00481816,.0002452,0.4778,86.1265,65.9777,102.0885,0,U,32794,999,8242,0,.123E-5,0
GALAXY 18 (G-18),2008-024A,2026-06-25T15:26:15.209376,1.00269373,.0003224,0.0241,7.4411,90.2307,284.6802,0,U,32951,999,4593,0,0,0
ZHONGXING-9,2008-028A,2026-06-25T18:10:17.601024,1.00271583,.0004047,0.7916,85.2657,352.1009,201.4872,0,U,33051,999,6612,0,-.239E-5,0
SKYNET 5C,2008-030A,2026-06-25T15:56:11.395392,1.00271921,.0004412,3.8107,76.9460,24.0856,34.0237,0,U,33055,999,6604,0,-.133E-5,0
TURKSAT 3A,2008-030B,2026-06-25T19:38:35.344032,1.00275639,.0005289,0.0327,68.7956,10.1714,171.6466,0,U,33056,999,5244,0,.156E-5,0
ECHOSTAR 11,2008-035A,2026-06-25T18:50:55.890240,1.00271893,.0002732,1.0275,84.1003,355.1599,7.5838,0,U,33207,999,5130,0,-.48E-6,0
SUPERBIRD-C2,2008-038A,2026-06-25T20:05:27.498048,1.00273084,.0006432,2.3833,81.1656,27.7398,242.4284,0,U,33274,999,10581,0,-.297E-5,0
INMARSAT 4-F3,2008-039A,2026-06-25T15:33:22.027104,1.00271488,.0002673,4.2999,31.6473,67.9679,309.5111,0,U,33278,999,4663,0,-.134E-5,0
NIMIQ 4,2008-044A,2026-06-25T15:37:44.106816,1.00270055,.0001868,0.0150,313.3505,143.6098,329.2501,0,U,33373,999,6506,0,-.21E-5,0
GALAXY 19 (G-19),2008-045A,2026-06-25T15:33:37.001952,1.00270843,.0002822,0.0443,260.7608,201.9710,307.4571,0,U,33376,999,6498,0,-.129E-5,0
ASTRA 1M,2008-057A,2026-06-25T19:32:13.455168,1.00270652,.0004808,0.3188,82.6289,24.0978,119.6900,0,U,33436,999,4582,0,.131E-5,0
EUTELSAT HOTBIRD 13C,2008-065A,2026-06-25T19:12:16.572384,1.00273716,.0003498,2.9723,79.0963,11.8127,60.7745,0,U,33459,999,4743,0,-.275E-5,0
EXPRESS-AM44,2009-007A,2026-06-25T15:58:11.203680,1.00271694,.0004261,3.4860,78.2979,7.3527,56.6766,0,U,33595,999,5237,0,-.82E-6,0
NSS-9,2009-008A,2026-06-25T19:03:38.626848,1.00273932,.000227,1.2841,82.5889,356.7789,303.5458,0,U,33749,999,6360,0,.81E-6,0
TELSTAR 11N,2009-009A,2026-06-25T12:25:08.002272,1.00272414,.000264,0.0431,81.6963,12.0931,328.5990,0,U,34111,999,4632,0,-.241E-5,0
WGS F2 (USA 204),2009-017A,2026-06-25T18:00:16.612128,1.00272434,.000042,0.0177,14.6577,122.6143,104.1935,0,U,34713,999,4570,0,.78E-6,0
SES-7 (PROTOSTAR 2),2009-027A,2026-06-25T19:57:28.264032,1.00278346,.0000253,0.0347,64.8386,61.6152,195.1157,0,U,34941,999,6271,0,-.335E-5,0
MEASAT-3A,2009-032A,2026-06-25T19:27:38.691072,1.00271206,.0003213,0.0296,31.7320,57.6329,276.4959,0,U,35362,999,811,0,-.1E-5,0
GOES 14,2009-033A,2026-06-25T20:05:42.473760,1.00108653,.0002215,1.7128,82.9491,18.1237,251.1129,0,U,35491,999,667,0,-.311E-5,0
FM-5,2009-034A,2026-06-25T19:38:17.752128,1.00274491,.0000984,0.0232,289.6770,43.9250,148.7582,0,U,35493,999,4673,0,-.19E-5,0
TERRESTAR-1,2009-035A,2026-06-25T14:27:14.623776,1.00272964,.0002654,5.1774,48.7939,39.5475,291.1928,0,U,35496,999,6221,0,-.51E-6,0
ASIASAT 5,2009-042A,2026-06-25T19:55:20.968320,1.00269118,.0001412,0.0134,88.2188,3.9354,221.1362,0,U,35696,999,6179,0,-.296E-5,0
JCSAT-12 (JCSAT-RA),2009-044A,2026-06-25T20:04:20.106048,1.00271369,.0000173,0.0131,323.1050,281.4725,102.5125,0,U,35755,999,6169,0,-.317E-5,0
OPTUS D3,2009-044B,2026-06-25T19:43:38.666784,1.00271301,.0003168,0.8783,268.6793,185.7054,271.6146,0,U,35756,999,6165,0,-.134E-5,0
NIMIQ 5,2009-050A,2026-06-25T16:45:54.885024,1.00271386,.0002958,0.0398,272.4017,171.9811,8.2317,0,U,35873,999,6143,0,-.246E-5,0
AMAZONAS 2,2009-054A,2026-06-25T12:15:23.933952,1.00271374,.0003497,1.8373,82.9539,13.3015,289.2527,0,U,35942,999,6126,0,-.25E-5,0
COMSATBW-1,2009-054B,2026-06-25T18:01:53.956416,1.00271202,.0003125,0.0584,140.8766,313.4139,153.0790,0,U,35943,999,6139,0,.35E-6,0
NSS-12,2009-058A,2026-06-25T18:00:09.122976,1.00272404,.0004971,0.0776,276.5484,146.4544,177.9213,0,U,36032,999,6100,0,.82E-6,0
THOR 6,2009-058B,2026-06-25T17:43:45.908256,1.00273001,.0002061,0.0171,268.7150,194.4114,75.8592,0,U,36033,999,6109,0,.1E-7,0
INTELSAT 14 (IS-14),2009-064A,2026-06-25T19:13:46.428384,1.00272870,.0002663,0.0173,11.4120,82.0860,63.8789,0,U,36097,999,6069,0,-.263E-5,0
EUTELSAT 36B,2009-065A,2026-06-25T19:41:05.103744,1.00272430,.0005808,0.5130,81.2250,11.6311,166.8456,0,U,36101,999,6079,0,.122E-5,0
INTELSAT 15 (IS-15),2009-067A,2026-06-25T18:07:56.229888,1.00271700,.0002499,0.0107,36.9940,60.9313,173.0992,0,U,36106,999,4131,0,-.175E-5,0
WGS F3 (USA 211),2009-068A,2026-06-25T15:24:15.401088,1.00268268,.000056,0.3164,85.7556,316.0179,333.0717,0,U,36108,999,4667,0,.75E-6,0
DIRECTV 12,2009-075A,2026-06-25T14:22:09.242976,1.00272814,.0000368,0.0446,181.6367,293.2482,271.6638,0,U,36131,999,4663,0,-.93E-6,0
BEIDOU-2 G1,2010-001A,2026-06-25T14:58:40.353024,1.00273583,.0002445,4.3138,60.3906,306.7863,271.7133,0,U,36287,999,6025,0,-.273E-5,0
SDO,2010-005A,2026-06-25T07:38:09.279744,1.00270663,.000168,34.6685,86.2181,50.5603,149.0403,0,U,36395,999,6014,0,-.93E-6,0
INTELSAT 16 (IS-16),2010-006A,2026-06-25T12:14:16.541952,1.00272022,.0002304,0.0103,25.3538,81.9257,273.7319,0,U,36397,999,5973,0,-.235E-5,0
EWS-G2 (GOES 15),2010-008A,2026-06-25T18:02:01.443840,1.00267964,.0005265,1.3010,82.7360,42.3804,122.8439,0,U,36411,999,5972,0,.3E-6,0
ECHOSTAR 14,2010-010A,2026-06-25T15:27:22.601376,1.00275041,.0002609,0.0289,278.3200,180.9062,287.5108,0,U,36499,999,4663,0,.1E-6,0
SES-1,2010-016A,2026-06-25T15:32:29.609952,1.00271798,.0002931,0.0314,297.7749,151.7573,316.3693,0,U,36516,999,5911,0,-.104E-5,0
ASTRA 3B,2010-021A,2026-06-25T19:33:20.847168,1.00274883,.0004076,1.4914,83.4483,14.2462,133.1116,0,U,36581,999,5895,0,.147E-5,0
COMSATBW-2,2010-021B,2026-06-25T16:05:03.043968,1.00279171,.0002998,0.0487,182.3194,289.7141,56.3344,0,U,36582,999,5904,0,.1E-5,0
BEIDOU-2 G3,2010-024A,2026-06-25T16:23:56.555808,1.00271191,.0008095,4.5364,61.4874,355.0030,182.9969,0,U,36590,999,5885,0,-.129E-5,0
BADR-5,2010-025A,2026-06-25T19:35:20.653728,1.00267869,.0003759,0.0476,150.0222,38.7664,49.5407,0,U,36592,999,5330,0,.164E-5,0
COMS 1,2010-032A,2026-06-25T19:37:42.926880,0.99166008,.0011887,4.8271,75.2572,13.2199,158.9248,0,U,36744,999,5117,0,.6E-6,0
ARABSAT-5A,2010-032B,2026-06-25T19:35:20.653728,1.00271319,.000563,0.0685,51.0406,60.8297,126.3972,0,U,36745,999,5873,0,.164E-5,0
ECHOSTAR 15,2010-034A,2026-06-25T15:27:22.601376,1.00272083,.0002219,0.0110,0.0632,77.8386,308.9054,0,U,36792,999,5840,0,.1E-6,0
BEIDOU-2 IGSO-1,2010-036A,2026-06-25T09:40:59.151360,1.00269899,.0059062,54.3046,162.8849,225.4119,138.0578,0,U,36828,999,5818,0,-.49E-6,0
NILESAT 201,2010-037A,2026-06-25T17:42:01.074816,1.00271293,.0005117,0.0398,147.1827,332.4099,52.7866,0,U,36830,999,5846,0,-.47E-6,0
RASCOM-QAF 1R,2010-037B,2026-06-25T19:27:28.908864,1.00271813,.0006604,0.0183,64.5305,24.3032,119.8721,0,U,36831,999,5839,0,.29E-6,0
AEHF-1 (USA 214),2010-039A,2026-06-24T19:37:56.904672,1.00279243,.00042294,8.2384,67.9563,11.1655,158.4174,0,U,36868,999,5373,0,.15E-5,0
XM-5,2010-053A,2026-06-25T19:30:03.462912,1.00276600,.0002726,0.0634,271.8911,289.4626,249.9091,0,U,37185,999,5757,0,-.13E-6,0
BSAT-3B,2010-056B,2026-06-25T19:57:58.217184,1.00271342,.0001947,0.0752,245.8240,282.8838,154.5897,0,U,37207,999,5218,0,-.339E-5,0
BEIDOU-2 G4,2010-057A,2026-06-25T15:17:09.983040,1.00271411,.0004824,3.6684,68.9055,193.7757,40.3654,0,U,37210,999,5737,0,-.105E-5,0
SKYTERRA 1,2010-061A,2026-06-25T14:22:02.789760,1.00272933,.0002434,5.1430,50.8493,22.1620,314.9173,0,U,37218,999,5727,0,-.113E-5,0
HYLAS 1,2010-065A,2026-06-24T00:37:23.176416,1.00273914,.00010524,5.6614,72.9389,336.6605,245.7390,0,U,37237,999,695,0,.93E-6,0
INTELSAT 17 (IS-17),2010-065B,2026-06-25T19:45:29.411712,1.00271656,.0002451,0.0079,68.3601,26.4367,181.5299,0,U,37238,999,5333,0,.9E-7,0
BEIDOU-2 IGSO-2,2010-068A,2026-06-24T16:14:12.098688,1.00281062,.00560425,47.5326,271.7373,213.3814,139.3528,0,U,37256,999,5686,0,-.223E-5,0
EUTELSAT KA-SAT 9A,2010-069A,2026-06-25T12:38:21.733152,1.00270328,.0003724,0.0599,12.0459,120.3470,339.8602,0,U,37258,999,4409,0,.71E-6,0
HISPASAT 30W-5,2010-070A,2026-06-25T07:19:26.071968,1.00270196,.0005784,0.0388,144.7596,325.2249,243.3090,0,U,37264,999,5326,0,-.206E-5,0
